COMMENT,ORIGINATOR,NORAD_CAT_ID,OBJECT_NAME,OBJECT_TYPE,CLASSIFICATION_TYPE,INTLDES,EPOCH,EPOCH_MICROSECONDS,MEAN_MOTION,ECCENTRICITY,INCLINATION,RA_OF_ASC_NODE,ARG_OF_PERICENTER,MEAN_ANOMALY,EPHEMERIS_TYPE,ELEMENT_SET_NO,REV_AT_EPOCH,BSTAR,MEAN_MOTION_DOT,MEAN_MOTION_DDOT,FILE,TLE_LINE0,TLE_LINE1,TLE_LINE2,OBJECT_ID,OBJECT_NUMBER,SEMIMAJOR_AXIS,PERIOD,APOGEE,PERIGEE,DECAYED
GENERATED VIA SPACETRACK.ORG API,18 SPCS,58292,UMBRA-08,PAYLOAD,U,23174AN,2024-11-09 11:22:01,805664,15.23995647,0.0002617,97.4389,24.8834,278.9063,81.1878,0,999,5562,0.0070577,0.00174791,0,4549171,0 UMBRA-08,1 58292U 23174AN  24314.47363201  .00174791  00000-0  70577-2 0  9990,2 58292  97.4389  24.8834 0002617 278.9063  81.1878 15.23995647 55620,2023-174AN,58292,6871.940,94.488,495.603,492.007,1
GENERATED VIA SPACETRACK.ORG API,18 SPCS,58292,UMBRA-08,PAYLOAD,U,23174AN,2024-11-09 17:40:13,168992,15.24043236,0.0002635,97.4388,25.1438,277.9139,82.1799,0,999,5566,0.0044476,0.00109303,0,4549380,0 UMBRA-08,1 58292U 23174AN  24314.73626353  .00109303  00000-0  44476-2 0  9995,2 58292  97.4388  25.1438 0002635 277.9139  82.1799 15.24043236 55662,2023-174AN,58292,6871.797,94.486,495.473,491.851,1
GENERATED VIA SPACETRACK.ORG API,18 SPCS,58292,UMBRA-08,PAYLOAD,U,23174AN,2024-11-10 11:00:10,430784,15.24194478,0.000259,97.439,25.8604,274.7509,85.3432,0,999,5577,0.0044981,0.00111069,0,4549736,0 UMBRA-08,1 58292U 23174AN  24315.45845406  .00111069  00000-0  44981-2 0  9990,2 58292  97.4390  25.8604 0002590 274.7509  85.3432 15.24194478 55779,2023-174AN,58292,6871.342,94.476,494.987,491.428,1
GENERATED VIA SPACETRACK.ORG API,18 SPCS,58292,UMBRA-08,PAYLOAD,U,23174AN,2024-11-10 22:01:55,54848,15.2426708,0.000274,97.4388,26.316,273.5679,86.5245,0,999,5584,0.0040077,0.00099004,0,4550087,0 UMBRA-08,1 58292U 23174AN  24315.91799832  .00099004  00000-0  40077-2 0  9998,2 58292  97.4388  26.3160 0002740 273.5679  86.5245 15.24267080 55844,2023-174AN,58292,6871.124,94.472,494.872,491.106,1
GENERATED VIA SPACETRACK.ORG API,18 SPCS,58292,UMBRA-08,PAYLOAD,U,23174AN,2024-11-11 05:54:34,126848,15.24325099,0.000281,97.4388,26.6419,272.0232,88.0683,0,999,5589,0.0033614,0.0008299,0,4550452,0 UMBRA-08,1 58292U 23174AN  24316.24622832  .00082990  00000-0  33614-2 0  9995,2 58292  97.4388  26.6419 0002810 272.0232  88.0683 15.24325099 55894,2023-174AN,58292,6870.950,94.468,494.746,490.884,1
GENERATED VIA SPACETRACK.ORG API,18 SPCS,58292,UMBRA-08,PAYLOAD,U,23174AN,2024-11-12 18:08:35,186784,15.24516855,0.000296,97.4392,28.1407,268.0593,92.0306,0,999,5612,0.0025822,0.00063936,0,4552012,0 UMBRA-08,1 58292U 23174AN  24317.75596281  .00063936  00000-0  25822-2 0  9991,2 58292  97.4392  28.1407 0002960 268.0593  92.0306 15.24516855 56120,2023-174AN,58292,6870.374,94.456,494.272,490.205,1
GENERATED VIA SPACETRACK.ORG API,18 SPCS,58292,UMBRA-08,PAYLOAD,U,23174AN,2024-11-12 18:08:35,186784,15.24516855,0.000296,97.4392,28.1407,268.0593,92.0306,0,999,5612,0.0025822,0.00063936,0,4552057,0 UMBRA-08,1 58292U 23174AN  24317.75596281  .00063936  00000-0  25822-2 0  9991,2 58292  97.4392  28.1407 0002960 268.0593  92.0306 15.24516855 56120,2023-174AN,58292,6870.374,94.456,494.272,490.205,1
GENERATED VIA SPACETRACK.ORG API,18 SPCS,58292,UMBRA-08,PAYLOAD,U,23174AN,2024-11-13 11:28:14,585376,15.24597697,0.0002836,97.4394,28.8578,264.9112,95.1802,0,999,5623,0.0025664,0.00063695,0,4552726,0 UMBRA-08,1 58292U 23174AN  24318.47794659  .00063695  00000-0  25664-2 0  9996,2 58292  97.4394  28.8578 0002836 264.9112  95.1802 15.24597697 56232,2023-174AN,58292,6870.131,94.451,493.944,490.047,1
GENERATED VIA SPACETRACK.ORG API,18 SPCS,58292,UMBRA-08,PAYLOAD,U,23174AN,2024-11-13 16:11:46,629600,15.24615619,0.0002796,97.4393,29.0533,264.8169,95.2749,0,999,5626,0.002164,0.00053653,0,4552978,0 UMBRA-08,1 58292U 23174AN  24318.67484525  .00053653  00000-0  21640-2 0  9999,2 58292  97.4393  29.0533 0002796 264.8169  95.2749 15.24615619 56260,2023-174AN,58292,6870.077,94.450,493.863,490.021,1
GENERATED VIA SPACETRACK.ORG API,18 SPCS,58292,UMBRA-08,PAYLOAD,U,23174AN,2024-11-13 17:46:17,205024,15.24627919,0.0002842,97.4393,29.1184,264.3914,95.6999,0,999,5627,0.0024198,0.00060078,0,4552980,0 UMBRA-08,1 58292U 23174AN  24318.74047691  .00060078  00000-0  24198-2 0  9996,2 58292  97.4393  29.1184 0002842 264.3914  95.6999 15.24627919 56276,2023-174AN,58292,6870.040,94.449,493.857,489.952,1
GENERATED VIA SPACETRACK.ORG API,18 SPCS,58292,UMBRA-08,PAYLOAD,U,23174AN,2024-11-14 04:47:50,653248,15.24680594,0.0002841,97.4394,29.5743,261.364,98.7276,0,999,5634,0.0020018,0.00049696,0,4553643,0 UMBRA-08,1 58292U 23174AN  24319.19989182  .00049696  00000-0  20018-2 0  9996,2 58292  97.4394  29.5743 0002841 261.3640  98.7276 15.24680594 56342,2023-174AN,58292,6869.882,94.446,493.698,489.795,1
GENERATED VIA SPACETRACK.ORG API,18 SPCS,58292,UMBRA-08,PAYLOAD,U,23174AN,2024-11-15 04:25:23,647008,15.24794427,0.0002884,97.4392,30.5521,257.7796,102.3119,0,999,5649,0.0024842,0.00062001,0,4554196,0 UMBRA-08,1 58292U 23174AN  24320.18430147  .00062001  00000-0  24842-2 0  9993,2 58292  97.4392  30.5521 0002884 257.7796 102.3119 15.24794427 56499,2023-174AN,58292,6869.540,94.439,493.386,489.424,1
GENERATED VIA SPACETRACK.ORG API,18 SPCS,58292,UMBRA-08,PAYLOAD,U,23174AN,2024-11-15 10:43:23,297088,15.24825658,0.0002857,97.4389,30.8131,257.6063,102.4855,0,999,5653,0.0026317,0.00065782,0,4554610,0 UMBRA-08,1 58292U 23174AN  24320.44679742  .00065782  00000-0  26317-2 0  9996,2 58292  97.4389  30.8131 0002857 257.6063 102.4855 15.24825658 56535,2023-174AN,58292,6869.446,94.437,493.274,489.348,1
GENERATED VIA SPACETRACK.ORG API,18 SPCS,58292,UMBRA-08,PAYLOAD,U,23174AN,2024-11-16 04:02:50,116704,15.24916592,0.0002974,97.4385,31.5295,255.048,105.0428,0,999,5664,0.003324,0.00083531,0,4555594,0 UMBRA-08,1 58292U 23174AN  24321.16863561  .00083531  00000-0  33240-2 0  9995,2 58292  97.4385  31.5295 0002974 255.0480 105.0428 15.24916592 56640,2023-174AN,58292,6869.173,94.431,493.081,488.995,1
GENERATED VIA SPACETRACK.ORG API,18 SPCS,58292,UMBRA-08,PAYLOAD,U,23174AN,2024-11-16 18:13:14,968128,15.2497177,0.0002923,97.4382,32.1163,254.2308,105.8607,0,999,5673,0.0020521,0.00051403,0,4555898,0 UMBRA-08,1 58292U 23174AN  24321.75920102  .00051403  00000-0  20521-2 0  9996,2 58292  97.4382  32.1163 0002923 254.2308 105.8607 15.24971770 56738,2023-174AN,58292,6869.007,94.428,492.880,488.864,1
GENERATED VIA SPACETRACK.ORG API,18 SPCS,58292,UMBRA-08,PAYLOAD,U,23174AN,2024-11-17 16:16:03,441504,15.2504874,0.0002934,97.4381,33.0287,249.4591,110.6332,0,999,5687,0.0019293,0.00048414,0,4556457,0 UMBRA-08,1 58292U 23174AN  24322.67781761  .00048414  00000-0  19293-2 0  9996,2 58292  97.4381  33.0287 0002934 249.4591 110.6332 15.25048740 56873,2023-174AN,58292,6868.776,94.423,492.656,488.626,1
GENERATED VIA SPACETRACK.ORG API,18 SPCS,58292,UMBRA-08,PAYLOAD,U,23174AN,2024-11-17 22:33:59,361696,15.25070882,0.0002983,97.4378,33.2889,248.4472,111.6448,0,999,5691,0.001775,0.00044543,0,4556486,0 UMBRA-08,1 58292U 23174AN  24322.94027039  .00044543  00000-0  17750-2 0  9992,2 58292  97.4378  33.2889 0002983 248.4472 111.6448 15.25070882 56916,2023-174AN,58292,6868.710,94.422,492.624,488.526,1
GENERATED VIA SPACETRACK.ORG API,18 SPCS,58292,UMBRA-08,PAYLOAD,U,23174AN,2024-11-18 11:09:50,232672,15.25115497,0.0002952,97.4377,33.8104,246.7122,113.3805,0,999,5699,0.0016444,0.00041297,0,4557070,0 UMBRA-08,1 58292U 23174AN  24323.46516473  .00041297  00000-0  16444-2 0  9997,2 58292  97.4377  33.8104 0002952 246.7122 113.3805 15.25115497 56996,2023-174AN,58292,6868.576,94.419,492.468,488.413,1
GENERATED VIA SPACETRACK.ORG API,18 SPCS,58292,UMBRA-08,PAYLOAD,U,23174AN,2024-11-18 17:27:45,135936,15.25140625,0.0002905,97.4376,34.071,245.3795,114.714,0,999,5703,0.0016738,0.00042072,0,4557346,0 UMBRA-08,1 58292U 23174AN  24323.72760574  .00042072  00000-0  16738-2 0  9997,2 58292  97.4376  34.0710 0002905 245.3795 114.7140 15.25140625 57034,2023-174AN,58292,6868.500,94.418,492.360,488.370,1
GENERATED VIA SPACETRACK.ORG API,18 SPCS,58292,UMBRA-08,PAYLOAD,U,23174AN,2024-11-18 22:11:11,41440,15.25161694,0.0002954,97.4374,34.267,245.1628,114.9303,0,999,5706,0.0018891,0.00047559,0,4557409,0 UMBRA-08,1 58292U 23174AN  24323.92443335  .00047559  00000-0  18891-2 0  9999,2 58292  97.4374  34.2670 0002954 245.1628 114.9303 15.25161694 57061,2023-174AN,58292,6868.437,94.416,492.331,488.273,1
GENERATED VIA SPACETRACK.ORG API,18 SPCS,58292,UMBRA-08,PAYLOAD,U,23174AN,2024-11-19 04:29:05,277696,15.25187916,0.0002977,97.4373,34.5277,244.2093,115.8838,0,999,5710,0.0019243,0.0004849,0,4558011,0 UMBRA-08,1 58292U 23174AN  24324.18686664  .00048490  00000-0  19243-2 0  9999,2 58292  97.4373  34.5277 0002977 244.2093 115.8838 15.25187916 57100,2023-174AN,58292,6868.358,94.415,492.268,488.179,1
GENERATED VIA SPACETRACK.ORG API,18 SPCS,58292,UMBRA-08,PAYLOAD,U,23174AN,2024-11-19 04:29:05,277696,15.25187916,0.0002977,97.4373,34.5277,244.2093,115.8838,0,999,5710,0.0019243,0.0004849,0,4558021,0 UMBRA-08,1 58292U 23174AN  24324.18686664  .00048490  00000-0  19243-2 0  9999,2 58292  97.4373  34.5277 0002977 244.2093 115.8838 15.25187916 57100,2023-174AN,58292,6868.358,94.415,492.268,488.179,1
GENERATED VIA SPACETRACK.ORG API,18 SPCS,58292,UMBRA-08,PAYLOAD,U,23174AN,2024-11-20 04:06:09,877824,15.25306707,0.000302,97.4369,35.5053,241.95,118.1432,0,999,5725,0.0026218,0.00066489,0,4558545,0 UMBRA-08,1 58292U 23174AN  24325.17094766  .00066489  00000-0  26218-2 0  9993,2 58292  97.4369  35.5053 0003020 241.9500 118.1432 15.25306707 57258,2023-174AN,58292,6868.002,94.407,491.941,487.792,1
GENERATED VIA SPACETRACK.ORG API,18 SPCS,58292,UMBRA-08,PAYLOAD,U,23174AN,2024-11-20 04:06:09,877824,15.25306707,0.000302,97.4369,35.5053,241.95,118.1432,0,999,5725,0.0026218,0.00066489,0,4558927,0 UMBRA-08,1 58292U 23174AN  24325.17094766  .00066489  00000-0  26218-2 0  9993,2 58292  97.4369  35.5053 0003020 241.9500 118.1432 15.25306707 57258,2023-174AN,58292,6868.002,94.407,491.941,487.792,1
